[{"OBJECT_NAME":"STARLINK-6247","OBJECT_ID":"2023-088AQ","EPOCH":"2026-03-09T22:00:01.999584","MEAN_MOTION":15.10083965,"ECCENTRICITY":0.00019423,"INCLINATION":43.0003,"RA_OF_ASC_NODE":93.1443,"ARG_OF_PERICENTER":278.2112,"MEAN_ANOMALY":125.9123,"EPHEMERIS_TYPE":0,"CLASSIFICATION_TYPE":"U","NORAD_CAT_ID":57086,"ELEMENT_SET_NO":999,"REV_AT_EPOCH":572,"BSTAR":0.0036696584,"MEAN_MOTION_DOT":0.00061107,"MEAN_MOTION_DDOT":0},{"OBJECT_NAME":"UPPER FREE FLYER","OBJECT_ID":"2018-099F","EPOCH":"2026-03-09T16:53:56.769792","MEAN_MOTION":15.10728091,"ECCENTRICITY":0.00115819,"INCLINATION":97.4495,"RA_OF_ASC_NODE":120.4613,"ARG_OF_PERICENTER":289.4209,"MEAN_ANOMALY":70.5769,"EPHEMERIS_TYPE":0,"CLASSIFICATION_TYPE":"U","NORAD_CAT_ID":43763,"ELEMENT_SET_NO":999,"REV_AT_EPOCH":39752,"BSTAR":0.00029221901,"MEAN_MOTION_DOT":4.788e-5,"MEAN_MOTION_DDOT":0}]
